NORAD_CAT_ID,OBJECT_NAME,OBJECT_TYPE,EPOCH,MEAN_MOTION,ECCENTRICITY,INCLINATION,RA_OF_ASC_NODE,ARG_OF_PERICENTER,MEAN_ANOMALY,BSTAR,MEAN_MOTION_DOT,MEAN_MOTION_DDOT,TLE_LINE0,TLE_LINE1,TLE_LINE2,SEMIMAJOR_AXIS,PERIOD,APOGEE,PERIGEE,DECAYED
51721.0,STARLINK-3524,PAYLOAD,2023-08-07 08:25:40,15.08827023,7.73e-05,53.2173,252.9239,61.5468,298.5602,-0.00014747,-2.633e-05,0.0,0 STARLINK-3524,1 51721U 22016H   23219.35115831 -.00002633  00000-0 -14747-3 0  9993,2 51721  53.2173 252.9239 0000773  61.5468 298.5602 15.08827023 81836,6917.92,95.438,540.32,539.25,0.0
51721.0,STARLINK-3524,PAYLOAD,2023-08-07 19:33:22,15.08830224,0.0001012,53.2166,250.8387,87.3866,272.7242,-0.00011009,-2.039e-05,0.0,0 STARLINK-3524,1 51721U 22016H   23219.81483803 -.00002039  00000-0 -11009-3 0  9999,2 51721  53.2166 250.8387 0001012  87.3866 272.7242 15.08830224 81903,6917.91,95.438,540.475,539.075,0.0
51721.0,STARLINK-3524,PAYLOAD,2023-08-08 11:27:13,15.08834826,9.49e-05,53.2158,247.865,101.2945,258.8154,3.6316e-05,2.9e-06,0.0,0 STARLINK-3524,1 51721U 22016H   23220.47723643  .00000290  00000-0  36316-4 0  9996,2 51721  53.2158 247.8650 0000949 101.2945 258.8154 15.08834826 82006,6917.896,95.438,540.418,539.105,0.0
51721.0,STARLINK-3524,PAYLOAD,2023-08-09 12:53:23,15.08837049,8.85e-05,53.2154,243.1073,87.8102,272.2992,0.00027484,4.089e-05,0.0,0 STARLINK-3524,1 51721U 22016H   23221.53707694  .00004089  00000-0  27484-3 0  9997,2 51721  53.2154 243.1073 0000885  87.8102 272.2992 15.08837049 82160,6917.889,95.438,540.367,539.142,0.0
51721.0,STARLINK-3524,PAYLOAD,2023-08-10 07:58:00,15.08852649,8.7e-05,53.2153,239.5386,86.1604,273.9487,0.00022376,3.276e-05,0.0,0 STARLINK-3524,1 51721U 22016H   23222.33194739  .00003276  00000-0  22376-3 0  9998,2 51721  53.2153 239.5386 0000870  86.1604 273.9487 15.08852649 82281,6917.842,95.437,540.309,539.105,0.0
51721.0,STARLINK-3524,PAYLOAD,2023-08-11 01:27:14,15.08850754,0.0001366,53.2143,236.2687,77.0486,283.0659,0.00010585,1.398e-05,0.0,0 STARLINK-3524,1 51721U 22016H   23223.06058936  .00001398  00000-0  10585-3 0  9999,2 51721  53.2143 236.2687 0001366  77.0486 283.0659 15.08850754 82396,6917.848,95.437,540.657,538.768,0.0
51721.0,STARLINK-3524,PAYLOAD,2023-08-11 17:21:06,15.08843581,0.0001141,53.2143,233.2945,84.3184,275.7938,-5.9774e-05,-1.239e-05,0.0,0 STARLINK-3524,1 51721U 22016H   23223.72298844 -.00001239  00000-0 -59774-4 0  9996,2 51721  53.2143 233.2945 0001141  84.3184 275.7938 15.08843581 82496,6917.869,95.437,540.524,538.945,0.0
51721.0,STARLINK-3524,PAYLOAD,2023-08-12 17:11:53,15.08835599,0.000108,53.216,228.833,92.5859,267.5257,0.00012715,1.736e-05,0.0,0 STARLINK-3524,1 51721U 22016H   23224.71659135  .00001736  00000-0  12715-3 0  9993,2 51721  53.2160 228.8330 0001080  92.5859 267.5257 15.08835599 82645,6917.894,95.438,540.506,539.012,0.0
51721.0,STARLINK-3524,PAYLOAD,2023-08-13 17:02:40,15.08846647,0.0001164,53.2166,224.3714,87.0846,273.028,-8.8001e-05,-1.688e-05,0.0,0 STARLINK-3524,1 51721U 22016H   23225.71018678 -.00001688  00000-0 -88001-4 0  9995,2 51721  53.2166 224.3714 0001164  87.0846 273.0280 15.08846647 82796,6917.86,95.437,540.53,538.92,0.0
51721.0,STARLINK-3524,PAYLOAD,2023-08-14 16:53:27,15.08837653,0.0001173,53.2167,219.9107,88.1833,271.9293,3.1559e-05,2.14e-06,0.0,0 STARLINK-3524,1 51721U 22016H   23226.70379168  .00000214  00000-0  31559-4 0  9997,2 51721  53.2167 219.9107 0001173  88.1833 271.9293 15.08837653 82946,6917.888,95.438,540.564,538.941,0.0
51721.0,STARLINK-3524,PAYLOAD,2023-08-15 23:05:46,15.08840785,0.0001155,53.2158,214.2619,87.4017,272.7107,0.00010976,1.459e-05,0.0,0 STARLINK-3524,1 51721U 22016H   23227.96234911  .00001459  00000-0  10976-3 0  9993,2 51721  53.2158 214.2619 0001155  87.4017 272.7107 15.08840785 83133,6917.878,95.438,540.542,538.944,0.0
51721.0,STARLINK-3524,PAYLOAD,2023-08-17 02:07:20,15.08835221,0.0001187,53.2158,209.2068,88.5632,271.5496,4.2245e-05,3.84e-06,0.0,0 STARLINK-3524,1 51721U 22016H   23229.08843421  .00000384  00000-0  42245-4 0  9991,2 51721  53.2158 209.2068 0001187  88.5632 271.5496 15.08835221 83301,6917.895,95.438,540.581,538.939,0.0
51721.0,STARLINK-3524,PAYLOAD,2023-08-17 10:04:15,15.08844796,0.0001244,53.216,207.7196,92.4321,267.6814,0.00010156,1.329e-05,0.0,0 STARLINK-3524,1 51721U 22016H   23229.41962660  .00001329  00000-0  10156-3 0  9990,2 51721  53.2160 207.7196 0001244  92.4321 267.6814 15.08844796 83354,6917.866,95.437,540.591,538.87,0.0
51721.0,STARLINK-3524,PAYLOAD,2023-08-18 03:33:30,15.08839738,0.0001304,53.2159,204.4488,94.1539,265.9602,8.648e-06,-1.5e-06,0.0,0 STARLINK-3524,1 51721U 22016H   23230.14827273 -.00000150  00000-0  86480-5 0  9999,2 51721  53.2159 204.4488 0001304  94.1539 265.9602 15.08839738 83465,6917.881,95.438,540.648,538.844,0.0
51721.0,STARLINK-3524,PAYLOAD,2023-08-18 09:55:02,15.08845199,0.0001357,53.2165,203.2592,96.2886,263.826,4.7408e-05,4.67e-06,0.0,0 STARLINK-3524,1 51721U 22016H   23230.41322808  .00000467  00000-0  47408-4 0  9999,2 51721  53.2165 203.2592 0001357  96.2886 263.8260 15.08845199 83501,6917.864,95.437,540.668,538.791,0.0
51721.0,STARLINK-3524,PAYLOAD,2023-08-19 04:59:41,15.0883635,0.0001311,53.2169,199.6915,94.898,265.2162,6.2426e-05,7.06e-06,0.0,0 STARLINK-3524,1 51721U 22016H   23231.20811563  .00000706  00000-0  62426-4 0  9991,2 51721  53.2169 199.6915 0001311  94.8980 265.2162 15.08836350 83620,6917.892,95.438,540.663,538.85,0.0
51721.0,STARLINK-3524,PAYLOAD,2023-08-19 09:45:51,15.08824155,0.0001161,53.2163,198.7998,90.4985,269.614,-6.6941e-05,-1.353e-05,0.0,0 STARLINK-3524,1 51721U 22016H   23231.40684802 -.00001353  00000-0 -66941-4 0  9994,2 51721  53.2163 198.7998 0001161  90.4985 269.6140 15.08824155 83652,6917.929,95.439,540.597,538.991,0.0
51721.0,STARLINK-3524,PAYLOAD,2023-08-20 08:01:15,15.08835007,0.0001211,53.2165,194.6364,93.0577,267.0554,6.6383e-05,7.69e-06,0.0,0 STARLINK-3524,1 51721U 22016H   23232.33420607  .00000769  00000-0  66383-4 0  9996,2 51721  53.2165 194.6364 0001211  93.0577 267.0554 15.08835007 83792,6917.896,95.438,540.598,538.923,0.0
51721.0,STARLINK-3524,PAYLOAD,2023-08-21 01:30:29,15.08847399,0.0001179,53.2163,191.3652,85.2453,274.8674,0.00020822,3.028e-05,0.0,0 STARLINK-3524,1 51721U 22016H   23233.06283715  .00003028  00000-0  20822-3 0  9992,2 51721  53.2163 191.3652 0001179  85.2453 274.8674 15.08847399 83902,6917.858,95.437,540.538,538.907,0.0
51721.0,STARLINK-3524,PAYLOAD,2023-08-22 02:56:39,15.08852682,0.0001678,53.217,186.6065,120.9525,239.1633,9.7277e-05,1.261e-05,0.0,0 STARLINK-3524,1 51721U 22016H   23234.12267593  .00001261  00000-0  97277-4 0  9992,2 51721  53.2170 186.6065 0001678 120.9525 239.1633 15.08852682 84064,6917.842,95.437,540.867,538.546,0.0
51721.0,STARLINK-3524,PAYLOAD,2023-08-23 01:12:03,15.08845027,0.000163,53.217,182.4468,107.614,252.5031,5.6412e-05,6.1e-06,0.0,0 STARLINK-3524,1 51721U 22016H   23235.05003803  .00000610  00000-0  56412-4 0  9990,2 51721  53.2170 182.4468 0001630 107.6140 252.5031 15.08845027 84200,6917.865,95.437,540.858,538.602,0.0
51721.0,STARLINK-3524,PAYLOAD,2023-08-24 05:48:59,15.08848181,0.0001602,53.217,177.0917,111.4523,248.664,0.00013231,1.819e-05,0.0,0 STARLINK-3524,1 51721U 22016H   23236.24235563  .00001819  00000-0  13231-3 0  9995,2 51721  53.2170 177.0917 0001602 111.4523 248.6640 15.08848181 83267,6917.855,95.437,540.829,538.612,0.0
51721.0,STARLINK-3524,PAYLOAD,2023-08-25 05:39:46,15.08846255,0.0001453,53.2172,172.6314,100.1157,259.9999,6.7853e-05,7.92e-06,0.0,0 STARLINK-3524,1 51721U 22016H   23237.23595694  .00000792  00000-0  67853-4 0  9998,2 51721  53.2172 172.6314 0001453 100.1157 259.9999 15.08846255 84536,6917.861,95.437,540.731,538.721,0.0
51721.0,STARLINK-3524,PAYLOAD,2023-08-26 00:44:24,15.08842706,0.0001289,53.2171,169.0635,97.0638,263.0501,2.1321e-05,5.1e-07,0.0,0 STARLINK-3524,1 51721U 22016H   23238.03084084  .00000051  00000-0  21321-4 0  9991,2 51721  53.2171 169.0635 0001289  97.0638 263.0501 15.08842706 84651,6917.872,95.437,540.629,538.845,0.0
51721.0,STARLINK-3524,PAYLOAD,2023-08-26 05:30:33,15.08848842,0.0001334,53.2174,168.1709,97.8711,262.2432,7.8007e-05,9.54e-06,0.0,0 STARLINK-3524,1 51721U 22016H   23238.22955425  .00000954  00000-0  78007-4 0  9993,2 51721  53.2174 168.1709 0001334  97.8711 262.2432 15.08848842 84681,6917.853,95.437,540.641,538.796,0.0
51721.0,STARLINK-3524,PAYLOAD,2023-08-26 19:49:02,15.08837061,0.0001373,53.2167,165.4943,94.5303,265.5846,6.0168e-06,-1.92e-06,0.0,0 STARLINK-3524,1 51721U 22016H   23238.82572637 -.00000192  00000-0  60168-5 0  9994,2 51721  53.2167 165.4943 0001373  94.5303 265.5846 15.08837061 83659,6917.889,95.438,540.704,538.805,0.0
51721.0,STARLINK-3524,PAYLOAD,2023-08-27 03:45:58,15.0883857,0.0001263,53.2168,164.0079,89.7957,270.318,1.569e-05,-3.8e-07,0.0,0 STARLINK-3524,1 51721U 22016H   23239.15692561 -.00000038  00000-0  15690-4 0  9998,2 51721  53.2168 164.0079 0001263  89.7957 270.3180 15.08838570 84825,6917.885,95.438,540.623,538.876,0.0
51721.0,STARLINK-3524,PAYLOAD,2023-08-28 03:36:44,15.08845642,0.0001476,53.2173,159.5493,112.6243,247.4905,9.5568e-05,1.234e-05,0.0,0 STARLINK-3524,1 51721U 22016H   23240.15052079  .00001234  00000-0  95568-4 0  9994,2 51721  53.2173 159.5493 0001476 112.6243 247.4905 15.08845642 84974,6917.863,95.437,540.749,538.707,0.0
51721.0,STARLINK-3524,PAYLOAD,2023-08-28 11:33:40,15.08849157,0.0001336,53.2173,158.0629,110.3858,249.7278,2.5525e-05,1.18e-06,0.0,0 STARLINK-3524,1 51721U 22016H   23240.48171910  .00000118  00000-0  25525-4 0  9992,2 51721  53.2173 158.0629 0001336 110.3858 249.7278 15.08849157 83906,6917.852,95.437,540.642,538.793,0.0
51721.0,STARLINK-3524,PAYLOAD,2023-08-29 01:52:09,15.0883732,0.0001391,53.217,155.3854,85.6608,274.4543,0.00010941,1.454e-05,0.0,0 STARLINK-3524,1 51721U 22016H   23241.07788887  .00001454  00000-0  10941-3 0  9994,2 51721  53.2170 155.3854 0001391  85.6608 274.4543 15.08837320 85115,6917.889,95.438,540.716,538.791,0.0
